ONEWEB-0291             
1 49081U 21075G   24145.57189470  .00000071  00000+0  14870-3 0  9994
2 49081  87.9161 155.8758 0002083  79.8353 280.3013 13.17650436134363
ONEWEB-0293             
1 49082U 21075H   24145.52127231  .00000023  00000+0  26443-4 0  9994
2 49082  87.9163 155.8985 0002240  82.0738 278.0648 13.17650275134387
ONEWEB-0294             
1 49083U 21075J   24145.49482107  .00000066  00000+0  14930-3 0  9991
2 49083  87.8924 140.7299 0002500  74.7971 285.3434 13.12443596135712
ONEWEB-0295             
1 49084U 21075K   24145.52284328  .00000049  00000+0  91787-4 0  9998
2 49084  87.9166 155.8754 0001922  74.8654 285.2690 13.17650857134347
ONEWEB-0296             
1 49085U 21075L   24145.47733680 -.00000546  00000+0 -15525-2 0  9991
2 49085  87.8923 140.7346 0002180  65.1129 295.0226 13.12442378135713
ONEWEB-0297             
1 49086U 21075M   24145.89030430  .00000467  00000+0  12635-2 0  9990
2 49086  87.8933 140.6576 0002021  88.7260 271.4100 13.12443031137369
ONEWEB-0298             
1 49087U 21075N   24145.52601890  .00000050  00000+0  94960-4 0  9996
2 49087  87.9164 155.8936 0001905  85.1270 275.0079 13.17649674134376
ONEWEB-0299             
1 49088U 21075P   24145.52758773  .00000057  00000+0  11368-3 0  9997
2 49088  87.9160 155.8636 0001805  83.2121 276.9216 13.17650774134357
